[Satellite]
VERSION=1.1
NAME=GPS BIIF-11  (PRN 10)
NICKNAME=GPS BIIF-11  (PRN 10)
TLE1=1 41019U 15062A   20157.04860096 -.00000009  00000-0  00000+0 0  9996
TLE2=2 41019  55.3359 117.2008 0057397 211.2996 148.3149  2.00564310 33644
STATUS=0
